*******************************************************************************
JPL/HORIZONS                    19P/Borrelly               2023-Mar-05 17:27:11
Rec #:90000304 (+COV) Soln.date: 2023-Jan-30_10:23:18   # obs: 2397 (2014-2023)
 
IAU76/J2000 helio. ecliptic osc. elements (au, days, deg., period=Julian yrs):
 
  EPOCH=  2459258.5 ! 2021-Feb-13.0000000 (TDB)    RMSW= n.a.
   EC= .6379442568804596   QR= 1.30591704167545    TP= 2459612.2538623288
   OM= 74.30948049255568   W= 351.8569119860381    IN= 29.32284352756474
   A= 3.606950218282476    MA= 309.1026651873833   ADIST= 5.907983394889501
   PER= 6.8504393371206    N= .143877821           ANGMOM= .025158735
   DAN= 1.31107            DDN= 5.80486            L= 67.1982813
   B= -3.9776979           MOID= .32295701         TP= 2022-Feb-01.7538623288
 
Comet physical (GM= km^3/s^2; RAD= km):
   GM= n.a.                RAD= 2.4
   M1=  9.7      M2=  13.2     k1=  15.5   k2=  5.      PHCOF=  .030
 
Comet non-gravitational force model (AMRAT=m^2/kg;A1-A3=au/d^2;DT=days;R0=au):
   AMRAT=  0.                                      DT=  0.
   A1= 3.59207957983E-9    A2= -1.110071316361E-10 A3= 0.
 Standard model:
   ALN=  .1112620426   NK=  4.6142   NM=  2.15     NN=  5.093    R0=  2.808
 
COMET comments 
1: soln ref.= JPL#K222/7, data arc: 2014-07-29 to 2023-01-21
2: k1=15.5, k2=5., phase coef.=0.03;
*******************************************************************************


*******************************************************************************
Ephemeris / WWW_USER Sun Mar  5 17:27:11 2023 Pasadena, USA      / Horizons
*******************************************************************************
Target body name: 19P/Borrelly                    {source: JPL#K222/7}
Center body name: Sun (10)                        {source: DE441}
Center-site name: BODY CENTER
*******************************************************************************
Start time      : A.D. 2015-Jan-01 00:00:00.0000 TDB
Stop  time      : A.D. 2023-Jan-01 00:00:00.0000 TDB
Step-size       : 1440 minutes
*******************************************************************************
Center geodetic : 0.0, 0.0, 0.0                   {E-lon(deg),Lat(deg),Alt(km)}
Center cylindric: 0.0, 0.0, 0.0                   {E-lon(deg),Dxy(km),Dz(km)}
Center radii    : 696000.0, 696000.0, 696000.0 km {Equator_a, b, pole_c}
Small perturbers: Yes                             {source: SB441-N16}
Output units    : KM-S
Calendar mode   : Mixed Julian/Gregorian
Output type     : GEOMETRIC cartesian states
Output format   : 3 (position, velocity, LT, range, range-rate)
Reference frame : Ecliptic of J2000.0
*******************************************************************************
Initial IAU76/J2000 heliocentric ecliptic osculating elements (au, days, deg.):
  EPOCH=  2459258.5 ! 2021-Feb-13.0000000 (TDB)    RMSW= n.a.                  
   EC= .6379442568804596   QR= 1.30591704167545    TP= 2459612.2538623288      
   OM= 74.30948049255568   W= 351.8569119860381    IN= 29.32284352756474       
  Equivalent ICRF heliocentric cartesian coordinates (au, au/d):
   X= 1.372735514442866E+00  Y=-2.269350909470443E+00  Z=-2.288422419893239E+00
  VX= 3.344858460111687E-03 VY= 8.165524495793533E-03 VZ= 3.007160634402817E-03
Comet physical (GM= km^3/s^2; RAD= km):                                        
   GM= n.a.                RAD= 2.4                                            
   M1=  9.7      M2=  13.2     k1=  15.5   k2=  5.      PHCOF=  .030           
Comet non-gravitational force model (AMRAT=m^2/kg;A1-A3=au/d^2;DT=days;R0=au): 
   AMRAT=  0.                                      DT=  0.                     
   A1= 3.59207957983E-9    A2= -1.110071316361E-10 A3= 0.                      
 Standard model:                                                               
   ALN=  .1112620426   NK=  4.6142   NM=  2.15     NN=  5.093    R0=  2.808    
*******************************************************************************
            JDTDB,            Calendar Date (TDB),                      X,                      Y,                      Z,                     VX,                     VY,                     VZ,                     LT,                     RG,                     RR,
**************************************************************************************************************************************************************************************************************************************************************************
$$SOE
2458323.500000000, A.D. 2018-Jul-24 00:00:00.0000, -3.519081343654646E+08, -7.929409504398583E+08,  8.059042151076323E+07,  5.460081846122876E+00, -3.740498112235119E+00, -3.703692432218121E+00,  2.906201949110599E+03,  8.712574257682571E+08,  8.563080852548495E-01,
2458324.500000000, A.D. 2018-Jul-25 00:00:00.0000, -3.514361267541637E+08, -7.932635263458265E+08,  8.027035811021984E+07,  5.466018478735518E+00, -3.726536173708635E+00, -3.705181660741728E+00,  2.906447351494248E+03,  8.713309955520505E+08,  8.466961559646142E-01,
2458325.500000000, A.D. 2018-Jul-26 00:00:00.0000, -3.509636066813235E+08, -7.935848957910200E+08,  7.995016627860066E+07,  5.471944382718978E+00, -3.712570774924306E+00, -3.706665374902317E+00,  2.906689983713306E+03,  8.714037348613917E+08,  8.370841358281371E-01,
2458326.500000000, A.D. 2018-Jul-27 00:00:00.0000, -3.504905750736495E+08, -7.939050584752879E+08,  7.962984649205777E+07,  5.477859563795773E+00, -3.698601888445966E+00, -3.708143581384717E+00,  2.906929845738317E+03,  8.714756436874506E+08,  8.274720021188392E-01,
2458327.500000000, A.D. 2018-Jul-28 00:00:00.0000, -3.500170328573579E+08, -7.942240140961035E+08,  7.930939922616708E+07,  5.483764027569757E+00, -3.684629486692835E+00, -3.709616286834526E+00,  2.907166937533263E+03,  8.715467220194291E+08,  8.178597319924599E-01,
2458328.500000000, A.D. 2018-Jul-29 00:00:00.0000, -3.495429809581857E+08, -7.945417623485504E+08,  7.898882495593220E+07,  5.489657779525436E+00, -3.670653541944003E+00, -3.711083497858493E+00,  2.907401259055520E+03,  8.716169698445492E+08,  8.082473024911053E-01,
2458329.500000000, A.D. 2018-Jul-30 00:00:00.0000, -3.490684203014016E+08, -7.948583029253111E+08,  7.866812415578741E+07,  5.495540825027634E+00, -3.656674026343787E+00, -3.712545221025005E+00,  2.907632810255839E+03,  8.716863871480453E+08,  7.986346905479723E-01,
2458330.500000000, A.D. 2018-Jul-31 00:00:00.0000, -3.485933518118156E+08, -7.951736355166563E+08,  7.834729729960120E+07,  5.501413169321408E+00, -3.642690911907832E+00, -3.714001462864633E+00,  2.907861591078300E+03,  8.717549739131545E+08,  7.890218729926460E-01,
2458331.500000000, A.D. 2018-Aug-01 00:00:00.0000, -3.481177764137899E+08, -7.954877598104331E+08,  7.802634486067960E+07,  5.507274817532767E+00, -3.628704170530236E+00, -3.715452229870840E+00,  2.908087601460297E+03,  8.718227301211070E+08,  7.794088265570119E-01,
2458332.500000000, A.D. 2018-Aug-02 00:00:00.0000, -3.476416950312487E+08, -7.958006754920554E+08,  7.770526731176883E+07,  5.513125774669601E+00, -3.614713773991769E+00, -3.716897528500783E+00,  2.908310841332504E+03,  8.718896557511190E+08,  7.697955278820985E-01,
2458333.500000000, A.D. 2018-Aug-03 00:00:00.0000, -3.471651085876889E+08, -7.961123822444947E+08,  7.738406512505898E+07,  5.518966045624079E+00, -3.600719693969412E+00, -3.718337365176346E+00,  2.908531310618846E+03,  8.719557507803855E+08,  7.601819535255351E-01,
2458334.500000000, A.D. 2018-Aug-04 00:00:00.0000, -3.466880180061892E+08, -7.964228797482706E+08,  7.706273877218661E+07,  5.524795635175907E+00, -3.586721902047350E+00, -3.719771746285360E+00,  2.908749009236487E+03,  8.720210151840713E+08,  7.505680799700203E-01,
2458335.500000000, A.D. 2018-Aug-05 00:00:00.0000, -3.462104242094202E+08, -7.967321676814450E+08,  7.674128872423804E+07,  5.530614547997762E+00, -3.572720369729282E+00, -3.721200678183124E+00,  2.908963937095803E+03,  8.720854489353080E+08,  7.409538836321312E-01,
2458336.500000000, A.D. 2018-Aug-06 00:00:00.0000, -3.457323281196532E+08, -7.970402457196140E+08,  7.641971545175171E+07,  5.536422788661791E+00, -3.558715068452835E+00, -3.722624167194176E+00,  2.909176094100360E+03,  8.721490520051861E+08,  7.313393408726778E-01,
2458337.500000000, A.D. 2018-Aug-07 00:00:00.0000, -3.452537306587684E+08, -7.973471135359037E+08,  7.609801942472067E+07,  5.542220361649762E+00, -3.544705969605260E+00, -3.724042219614497E+00,  2.909385480146909E+03,  8.722118243627517E+08,  7.217244280067924E-01,
2458338.500000000, A.D. 2018-Aug-08 00:00:00.0000, -3.447746327482623E+08, -7.976527708009666E+08,  7.577620111259550E+07,  5.548007271366184E+00, -3.530693044540980E+00, -3.725454841714123E+00,  2.909592095125367E+03,  8.722737659750035E+08,  7.121091213145877E-01,
2458339.500000000, A.D. 2018-Aug-09 00:00:00.0000, -3.442950353092534E+08, -7.979572171829798E+08,  7.545426098428571E+07,  5.553783522155231E+00, -3.516676264601021E+00, -3.726862039740248E+00,  2.909795938918814E+03,  8.723348768068889E+08,  7.024933970520975E-01,
2458340.500000000, A.D. 2018-Aug-10 00:00:00.0000, -3.438149392624869E+08, -7.982604523476440E+08,  7.513219950816226E+07,  5.559549118323756E+00, -3.502655601132506E+00, -3.728263819920878E+00,  2.909997011403482E+03,  8.723951568213037E+08,  6.928772314599229E-01,
2458341.500000000, A.D. 2018-Aug-11 00:00:00.0000, -3.433343455283363E+08, -7.985624759581856E+08,  7.481001715205836E+07,  5.565304064168628E+00, -3.488631025511671E+00, -3.729660188469157E+00,  2.910195312448756E+03,  8.724546059790903E+08,  6.832606007735122E-01,
2458342.500000000, A.D. 2018-Aug-12 00:00:00.0000, -3.428532550268034E+08, -7.988632876753592E+08,  7.448771438327110E+07,  5.571048364013794E+00, -3.474602509163569E+00, -3.731051151588292E+00,  2.910390841917171E+03,  8.725132242390380E+08,  6.736434812266796E-01,
